{
  "type": "FeatureCollection",
  "features": [
    {
      "type": "Feature",
      "properties": {
        "norad_id": 34350,
        "name": "IRIDIUM 33 DEB",
        "group": "iridium-33-debris",
        "lat": 27.373131713448565,
        "lon": 6.247820732579322,
        "alt_km": 747.3678679994109,
        "timestamp": "2025-12-09T04:51:47.876717+00:00",
        "meta_object_name": "IRIDIUM 33 DEB",
        "meta_object_id": "1997-051ES",
        "meta_epoch": "2025-12-08T12:39:42.923232",
        "meta_mean_motion": 14.45373543,
        "meta_eccentricity": 0.00224112,
        "meta_inclination": 86.3278,
        "meta_ra_of_asc_node": 4.6351,
        "meta_arg_of_pericenter": 148.3477,
        "meta_mean_anomaly": 329.0957,
        "meta_ephemeris_type": 0,
        "meta_classification_type": "U",
        "meta_norad_cat_id": 34350,
        "meta_element_set_no": 999,
        "meta_rev_at_epoch": 88232,
        "meta_bstar": 0.00058126986,
        "meta_mean_motion_dot": 2.069e-05,
        "meta_mean_motion_ddot": 0,
        "tle_line1": "1 34350U 97051ES  25342.52758013  .00002069  00000+0  58127-3 0  9996",
        "tle_line2": "2 34350  86.3278   4.6351 0022411 148.3477 329.0957 14.45373543882321"
      },
      "geometry": {
        "type": "Point",
        "coordinates": [
          6.247820732579322,
          27.373131713448565
        ]
      }
    },
    {
      "type": "Feature",
      "properties": {
        "norad_id": 34366,
        "name": "IRIDIUM 33 DEB",
        "group": "iridium-33-debris",
        "lat": -65.75311430056132,
        "lon": -121.04418370282822,
        "alt_km": 721.2878956486884,
        "timestamp": "2025-12-09T04:51:47.876727+00:00",
        "meta_object_name": "IRIDIUM 33 DEB",
        "meta_object_id": "1997-051FJ",
        "meta_epoch": "2025-12-08T16:46:27.723936",
        "meta_mean_motion": 14.54002861,
        "meta_eccentricity": 0.0022165,
        "meta_inclination": 86.3693,
        "meta_ra_of_asc_node": 51.0707,
        "meta_arg_of_pericenter": 152.4858,
        "meta_mean_anomaly": 338.307,
        "meta_ephemeris_type": 0,
        "meta_classification_type": "U",
        "meta_norad_cat_id": 34366,
        "meta_element_set_no": 999,
        "meta_rev_at_epoch": 88123,
        "meta_bstar": 0.001684,
        "meta_mean_motion_dot": 7.142e-05,
        "meta_mean_motion_ddot": 0,
        "tle_line1": "1 34366U 97051FJ  25342.69893199  .00007142  00000+0  16840-2 0  9998",
        "tle_line2": "2 34366  86.3693  51.0707 0022165 152.4858 338.3070 14.54002861881235"
      },
      "geometry": {
        "type": "Point",
        "coordinates": [
          -121.04418370282822,
          -65.75311430056132
        ]
      }
    },
    {
      "type": "Feature",
      "properties": {
        "norad_id": 34375,
        "name": "IRIDIUM 33 DEB",
        "group": "iridium-33-debris",
        "lat": -79.5821375272901,
        "lon": 23.95674291659835,
        "alt_km": 878.8155766035679,
        "timestamp": "2025-12-09T04:51:47.876737+00:00",
        "meta_object_name": "IRIDIUM 33 DEB",
        "meta_object_id": "1997-051FT",
        "meta_epoch": "2025-12-08T14:22:11.917920",
        "meta_mean_motion": 14.17981897,
        "meta_eccentricity": 0.0103,
        "meta_inclination": 86.4327,
        "meta_ra_of_asc_node": 184.3663,
        "meta_arg_of_pericenter": 139.7555,
        "meta_mean_anomaly": 278.6554,
        "meta_ephemeris_type": 0,
        "meta_classification_type": "U",
        "meta_norad_cat_id": 34375,
        "meta_element_set_no": 999,
        "meta_rev_at_epoch": 86653,
        "meta_bstar": 0.00071558,
        "meta_mean_motion_dot": 1.562e-05,
        "meta_mean_motion_ddot": 0,
        "tle_line1": "1 34375U 97051FT  25342.59874905  .00001562  00000+0  71558-3 0  9999",
        "tle_line2": "2 34375  86.4327 184.3663 0103000 139.7555 278.6554 14.17981897866534"
      },
      "geometry": {
        "type": "Point",
        "coordinates": [
          23.95674291659835,
          -79.5821375272901
        ]
      }
    },
    {
      "type": "Feature",
      "properties": {
        "norad_id": 34376,
        "name": "IRIDIUM 33 DEB",
        "group": "iridium-33-debris",
        "lat": 64.61619153738131,
        "lon": 15.971649238534756,
        "alt_km": 686.4866268153364,
        "timestamp": "2025-12-09T04:51:47.876747+00:00",
        "meta_object_name": "IRIDIUM 33 DEB",
        "meta_object_id": "1997-051FU",
        "meta_epoch": "2025-12-08T12:08:43.156320",
        "meta_mean_motion": 14.62473934,
        "meta_eccentricity": 0.00266769,
        "meta_inclination": 86.2983,
        "meta_ra_of_asc_node": 8.4427,
        "meta_arg_of_pericenter": 181.0135,
        "meta_mean_anomaly": 179.1027,
        "meta_ephemeris_type": 0,
        "meta_classification_type": "U",
        "meta_norad_cat_id": 34376,
        "meta_element_set_no": 999,
        "meta_rev_at_epoch": 87945,
        "meta_bstar": 0.0017835286,
        "meta_mean_motion_dot": 9.105e-05,
        "meta_mean_motion_ddot": 0,
        "tle_line1": "1 34376U 97051FU  25342.50605505  .00009105  00000+0  17835-2 0  9997",
        "tle_line2": "2 34376  86.2983   8.4427 0026676 181.0135 179.1027 14.62473934879455"
      },
      "geometry": {
        "type": "Point",
        "coordinates": [
          15.971649238534756,
          64.61619153738131
        ]
      }
    },
    {
      "type": "Feature",
      "properties": {
        "norad_id": 34486,
        "name": "IRIDIUM 33 DEB",
        "group": "iridium-33-debris",
        "lat": -40.55519469481939,
        "lon": -163.24916746929256,
        "alt_km": 588.4406969129468,
        "timestamp": "2025-12-09T04:51:47.876757+00:00",
        "meta_object_name": "IRIDIUM 33 DEB",
        "meta_object_id": "1997-051GB",
        "meta_epoch": "2025-12-08T20:37:16.638240",
        "meta_mean_motion": 14.95523221,
        "meta_eccentricity": 0.0013348,
        "meta_inclination": 86.3939,
        "meta_ra_of_asc_node": 13.8156,
        "meta_arg_of_pericenter": 124.9718,
        "meta_mean_anomaly": 47.7336,
        "meta_ephemeris_type": 0,
        "meta_classification_type": "U",
        "meta_norad_cat_id": 34486,
        "meta_element_set_no": 999,
        "meta_rev_at_epoch": 88928,
        "meta_bstar": 0.0028484,
        "meta_mean_motion_dot": 0.00031735,
        "meta_mean_motion_ddot": 0,
        "tle_line1": "1 34486U 97051GB  25342.85922035  .00031735  00000+0  28484-2 0  9993",
        "tle_line2": "2 34486  86.3939  13.8156 0013348 124.9718  47.7336 14.95523221889289"
      },
      "geometry": {
        "type": "Point",
        "coordinates": [
          -163.24916746929256,
          -40.55519469481939
        ]
      }
    },
    {
      "type": "Feature",
      "properties": {
        "norad_id": 34487,
        "name": "IRIDIUM 33 DEB",
        "group": "iridium-33-debris",
        "lat": -3.0970069031647207,
        "lon": -165.90149958985637,
        "alt_km": 734.6000091336746,
        "timestamp": "2025-12-09T04:51:47.876767+00:00",
        "meta_object_name": "IRIDIUM 33 DEB",
        "meta_object_id": "1997-051GC",
        "meta_epoch": "2025-12-08T08:07:14.868192",
        "meta_mean_motion": 14.43208344,
        "meta_eccentricity": 0.00324214,
        "meta_inclination": 86.3438,
        "meta_ra_of_asc_node": 14.2722,
        "meta_arg_of_pericenter": 142.2384,
        "meta_mean_anomaly": 232.9824,
        "meta_ephemeris_type": 0,
        "meta_classification_type": "U",
        "meta_norad_cat_id": 34487,
        "meta_element_set_no": 999,
        "meta_rev_at_epoch": 88185,
        "meta_bstar": 0.00035758899,
        "meta_mean_motion_dot": 1.229e-05,
        "meta_mean_motion_ddot": 0,
        "tle_line1": "1 34487U 97051GC  25342.33836653  .00001229  00000+0  35759-3 0  9996",
        "tle_line2": "2 34487  86.3438  14.2722 0032421 142.2384 232.9824 14.43208344881857"
      },
      "geometry": {
        "type": "Point",
        "coordinates": [
          -165.90149958985637,
          -3.0970069031647207
        ]
      }
    },
    {
      "type": "Feature",
      "properties": {
        "norad_id": 34488,
        "name": "IRIDIUM 33 DEB",
        "group": "iridium-33-debris",
        "lat": 36.3916858872595,
        "lon": 124.84781497686112,
        "alt_km": 478.91835445509787,
        "timestamp": "2025-12-09T04:51:47.876778+00:00",
        "meta_object_name": "IRIDIUM 33 DEB",
        "meta_object_id": "1997-051GD",
        "meta_epoch": "2025-12-08T07:48:19.384704",
        "meta_mean_motion": 15.2782721,
        "meta_eccentricity": 0.00144949,
        "meta_inclination": 86.3245,
        "meta_ra_of_asc_node": 307.997,
        "meta_arg_of_pericenter": 58.3794,
        "meta_mean_anomaly": 301.8866,
        "meta_ephemeris_type": 0,
        "meta_classification_type": "U",
        "meta_norad_cat_id": 34488,
        "meta_element_set_no": 999,
        "meta_rev_at_epoch": 89172,
        "meta_bstar": 0.0050658293,
        "meta_mean_motion_dot": 0.00140352,
        "meta_mean_motion_ddot": 0,
        "tle_line1": "1 34488U 97051GD  25342.32522436  .00140352  00000+0  50658-2 0  9992",
        "tle_line2": "2 34488  86.3245 307.9970 0014494  58.3794 301.8866 15.27827210891724"
      },
      "geometry": {
        "type": "Point",
        "coordinates": [
          124.84781497686112,
          36.3916858872595
        ]
      }
    }
  ]
}